start=new Date('2022-01-17T00:00:00.000Z').valueOf();
sats=[{"ARG_OF_PERICENTER":"67.7160","ELEMENT_SET_NO":"999","PERIAPSIS":"545.773","TIME_SYSTEM":"UTC","FILE":"3274671","SITE":"AFETR","EPHEMERIS_TYPE":"0","COUNTRY_CODE":"US","MEAN_ANOMALY":"292.4041","OBJECT_TYPE":"PAYLOAD","INCLINATION":"53.0542","TLE_LINE1":"1 46755U 20074S   22016.43701848  .00003473  00000-0  25181-3 0  9993","DECAY_DATE":null,"TLE_LINE2":"2 46755  53.0542 279.8743 0002005  67.7160 292.4041 15.06416912 68520","APOAPSIS":"548.550","RCS_SIZE":"LARGE","LAUNCH_DATE":"2020-10-24","REF_FRAME":"TEME","MEAN_ELEMENT_THEORY":"SGP4","RA_OF_ASC_NODE":"279.8743","CENTER_NAME":"EARTH","OBJECT_NAME":"STARLINK-1924","GP_ID":"193985454","CLASSIFICATION_TYPE":"U","PERIOD":"95.591","SEMIMAJOR_AXIS":"6925.297","MEAN_MOTION":"15.06416912","BSTAR":"0.00025181000000","OBJECT_ID":"2020-074S","ECCENTRICITY":"0.00020050","REV_AT_EPOCH":"6852","NORAD_CAT_ID":"46755","EPOCH":"2022-01-16T10:29:18.396672","MEAN_MOTION_DOT":"0.00003473","MEAN_MOTION_DDOT":"0.0000000000000"},{"LAUNCH_DATE":"2020-10-24","REF_FRAME":"TEME","RA_OF_ASC_NODE":"277.8239","MEAN_ELEMENT_THEORY":"SGP4","DECAY_DATE":null,"APOAPSIS":"548.315","TLE_LINE2":"2 46756  53.0555 277.8239 0001615  75.5869 284.5299 15.06405530 68613","RCS_SIZE":"LARGE","NORAD_CAT_ID":"46756","REV_AT_EPOCH":"6861","EPOCH":"2022-01-16T21:26:05.804736","MEAN_MOTION_DOT":"-0.00003341","MEAN_MOTION_DDOT":"0.0000000000000","CENTER_NAME":"EARTH","GP_ID":"193993299","OBJECT_NAME":"STARLINK-1925","CLASSIFICATION_TYPE":"U","OBJECT_ID":"2020-074T","BSTAR":"-0.00020547000000","ECCENTRICITY":"0.00016150","PERIOD":"95.592","SEMIMAJOR_AXIS":"6925.332","MEAN_MOTION":"15.06405530","ELEMENT_SET_NO":"999","PERIAPSIS":"546.078","TIME_SYSTEM":"UTC","ARG_OF_PERICENTER":"75.5869","INCLINATION":"53.0555","TLE_LINE1":"1 46756U 20074T   22016.89312274 -.00003341  00000-0 -20547-3 0  9992","SITE":"AFETR","FILE":"3274934","EPHEMERIS_TYPE":"0","MEAN_ANOMALY":"284.5299","OBJECT_TYPE":"PAYLOAD","COUNTRY_CODE":"US"},{"OBJECT_NAME":"STARLINK-1926","GP_ID":"193984954","CENTER_NAME":"EARTH","PERIOD":"95.591","SEMIMAJOR_AXIS":"6925.278","MEAN_MOTION":"15.06422884","OBJECT_ID":"2020-074U","BSTAR":"0.00043305000000","ECCENTRICITY":"0.00018840","CLASSIFICATION_TYPE":"U","REV_AT_EPOCH":"6852","NORAD_CAT_ID":"46757","MEAN_MOTION_DOT":"0.00006178","MEAN_MOTION_DDOT":"0.0000000000000","EPOCH":"2022-01-16T10:59:47.472576","TLE_LINE2":"2 46757  53.0548 279.7929 0001884  69.2670 290.8521 15.06422884 68520","APOAPSIS":"548.448","DECAY_DATE":null,"RCS_SIZE":"LARGE","REF_FRAME":"TEME","LAUNCH_DATE":"2020-10-24","MEAN_ELEMENT_THEORY":"SGP4","RA_OF_ASC_NODE":"279.7929","SITE":"AFETR","FILE":"3274671","EPHEMERIS_TYPE":"0","COUNTRY_CODE":"US","OBJECT_TYPE":"PAYLOAD","MEAN_ANOMALY":"290.8521","TLE_LINE1":"1 46757U 20074U   22016.45818834  .00006178  00000-0  43305-3 0  9994","INCLINATION":"53.0548","ARG_OF_PERICENTER":"69.2670","TIME_SYSTEM":"UTC","PERIAPSIS":"545.839","ELEMENT_SET_NO":"999"},{"PERIAPSIS":"545.739","TIME_SYSTEM":"UTC","ELEMENT_SET_NO":"999","ARG_OF_PERICENTER":"56.3533","TLE_LINE1":"1 46758U 20074V   22016.88302820 -.00001402  00000-0 -75253-4 0  9990","INCLINATION":"53.0541","SITE":"AFETR","FILE":"3274933","EPHEMERIS_TYPE":"0","OBJECT_TYPE":"PAYLOAD","MEAN_ANOMALY":"303.7661","COUNTRY_CODE":"US","REF_FRAME":"TEME","LAUNCH_DATE":"2020-10-24","RA_OF_ASC_NODE":"277.8818","MEAN_ELEMENT_THEORY":"SGP4","APOAPSIS":"548.723","TLE_LINE2":"2 46758  53.0541 277.8818 0002154  56.3533 303.7661 15.06394289 68612","DECAY_DATE":null,"RCS_SIZE":"LARGE","REV_AT_EPOCH":"6861","NORAD_CAT_ID":"46758","MEAN_MOTION_DDOT":"0.0000000000000","MEAN_MOTION_DOT":"-0.00001402","EPOCH":"2022-01-16T21:11:33.636480","GP_ID":"193993456","OBJECT_NAME":"STARLINK-1928","CENTER_NAME":"EARTH","OBJECT_ID":"2020-074V","BSTAR":"-0.00007525300000","ECCENTRICITY":"0.00021540","MEAN_MOTION":"15.06394289","PERIOD":"95.593","SEMIMAJOR_AXIS":"6925.366","CLASSIFICATION_TYPE":"U"},{"TIME_SYSTEM":"UTC","PERIAPSIS":"545.753","ELEMENT_SET_NO":"999","ARG_OF_PERICENTER":"68.0844","TLE_LINE1":"1 46759U 20074W   22016.48032683  .00005100  00000-0  36079-3 0  9993","INCLINATION":"53.0549","FILE":"3274671","EPHEMERIS_TYPE":"0","SITE":"AFETR","COUNTRY_CODE":"US","OBJECT_TYPE":"PAYLOAD","MEAN_ANOMALY":"292.0357","REF_FRAME":"TEME","LAUNCH_DATE":"2020-10-24","MEAN_ELEMENT_THEORY":"SGP4","RA_OF_ASC_NODE":"289.6717","APOAPSIS":"548.519","TLE_LINE2":"2 46759  53.0549 289.6717 0001997  68.0844 292.0357 15.06425306 68380","DECAY_DATE":null,"RCS_SIZE":"LARGE","NORAD_CAT_ID":"46759","REV_AT_EPOCH":"6838","MEAN_MOTION_DOT":"0.00005100","MEAN_MOTION_DDOT":"0.0000000000000","EPOCH":"2022-01-16T11:31:40.238112","OBJECT_NAME":"STARLINK-1833","GP_ID":"193985954","CENTER_NAME":"EARTH","PERIOD":"95.591","SEMIMAJOR_AXIS":"6925.271","MEAN_MOTION":"15.06425306","ECCENTRICITY":"0.00019970","BSTAR":"0.00036079000000","OBJECT_ID":"2020-074W","CLASSIFICATION_TYPE":"U"},{"RA_OF_ASC_NODE":"287.5400","MEAN_ELEMENT_THEORY":"SGP4","LAUNCH_DATE":"2020-10-24","REF_FRAME":"TEME","RCS_SIZE":"LARGE","DECAY_DATE":null,"TLE_LINE2":"2 46760  53.0532 287.5400 0001875  69.7237 290.3953 15.06406715 68486","APOAPSIS":"548.491","EPOCH":"2022-01-16T22:56:22.373664","MEAN_MOTION_DDOT":"0.0000000000000","MEAN_MOTION_DOT":"0.00000119","REV_AT_EPOCH":"6848","NORAD_CAT_ID":"46760","CLASSIFICATION_TYPE":"U","BSTAR":"0.00002690800000","ECCENTRICITY":"0.00018750","OBJECT_ID":"2020-074X","PERIOD":"95.592","SEMIMAJOR_AXIS":"6925.328","MEAN_MOTION":"15.06406715","CENTER_NAME":"EARTH","GP_ID":"193996659","OBJECT_NAME":"STARLINK-1896","ELEMENT_SET_NO":"999","TIME_SYSTEM":"UTC","PERIAPSIS":"545.894","ARG_OF_PERICENTER":"69.7237","INCLINATION":"53.0532","TLE_LINE1":"1 46760U 20074X   22016.95581451  .00000119  00000-0  26908-4 0  9995","MEAN_ANOMALY":"290.3953","OBJECT_TYPE":"PAYLOAD","COUNTRY_CODE":"US","EPHEMERIS_TYPE":"0","FILE":"3275072","SITE":"AFETR"},{"EPOCH":"2022-01-16T12:36:51.870240","MEAN_MOTION_DOT":"0.00205611","MEAN_MOTION_DDOT":"0.0000000000000","REV_AT_EPOCH":"6841","NORAD_CAT_ID":"46763","CLASSIFICATION_TYPE":"U","PERIOD":"94.812","MEAN_MOTION":"15.18794344","SEMIMAJOR_AXIS":"6887.620","BSTAR":"0.00950440000000","OBJECT_ID":"2020-074AA","ECCENTRICITY":"0.00011190","CENTER_NAME":"EARTH","OBJECT_NAME":"STARLINK-1902","GP_ID":"193984455","MEAN_ELEMENT_THEORY":"SGP4","RA_OF_ASC_NODE":"288.2963","LAUNCH_DATE":"2020-10-24","REF_FRAME":"TEME","RCS_SIZE":"LARGE","DECAY_DATE":null,"APOAPSIS":"510.256","TLE_LINE2":"2 46763  53.0524 288.2963 0001119  51.6362 308.4733 15.18794344 68413","INCLINATION":"53.0524","TLE_LINE1":"1 46763U 20074AA  22016.52560035  .00205611  00000-0  95044-2 0  9995","COUNTRY_CODE":"US","MEAN_ANOMALY":"308.4733","OBJECT_TYPE":"PAYLOAD","SITE":"AFETR","FILE":"3274671","EPHEMERIS_TYPE":"0","ELEMENT_SET_NO":"999","PERIAPSIS":"508.715","TIME_SYSTEM":"UTC","ARG_OF_PERICENTER":"51.6362"},{"SITE":"AFETR","FILE":"3274879","EPHEMERIS_TYPE":"0","OBJECT_TYPE":"PAYLOAD","MEAN_ANOMALY":"297.3175","COUNTRY_CODE":"US","INCLINATION":"53.0539","TLE_LINE1":"1 46764U 20074AB  22016.74939813  .00004321  00000-0  30866-3 0  9991","ARG_OF_PERICENTER":"62.8021","ELEMENT_SET_NO":"999","TIME_SYSTEM":"UTC","PERIAPSIS":"545.746","CENTER_NAME":"EARTH","GP_ID":"193992282","OBJECT_NAME":"STARLINK-1903","CLASSIFICATION_TYPE":"U","BSTAR":"0.00030866000000","ECCENTRICITY":"0.00020370","OBJECT_ID":"2020-074AB","SEMIMAJOR_AXIS":"6925.292","PERIOD":"95.591","MEAN_MOTION":"15.06418581","NORAD_CAT_ID":"46764","REV_AT_EPOCH":"6844","EPOCH":"2022-01-16T17:59:07.998432","MEAN_MOTION_DOT":"0.00004321","MEAN_MOTION_DDOT":"0.0000000000000","DECAY_DATE":null,"APOAPSIS":"548.567","TLE_LINE2":"2 46764  53.0539 288.4608 0002037  62.8021 297.3175 15.06418581 68446","RCS_SIZE":"LARGE","LAUNCH_DATE":"2020-10-24","REF_FRAME":"TEME","RA_OF_ASC_NODE":"288.4608","MEAN_ELEMENT_THEORY":"SGP4"},{"ARG_OF_PERICENTER":"71.6950","TIME_SYSTEM":"UTC","PERIAPSIS":"545.830","ELEMENT_SET_NO":"999","OBJECT_TYPE":"PAYLOAD","MEAN_ANOMALY":"288.4250","COUNTRY_CODE":"US","EPHEMERIS_TYPE":"0","FILE":"3274828","SITE":"AFETR","TLE_LINE1":"1 46765U 20074AC  22016.73834416  .00002368  00000-0  17777-3 0  9999","INCLINATION":"53.0548","RCS_SIZE":"LARGE","APOAPSIS":"548.524","TLE_LINE2":"2 46765  53.0548 288.5318 0001945  71.6950 288.4250 15.06411973 68153","DECAY_DATE":null,"RA_OF_ASC_NODE":"288.5318","MEAN_ELEMENT_THEORY":"SGP4","REF_FRAME":"TEME","LAUNCH_DATE":"2020-10-24","ECCENTRICITY":"0.00019450","BSTAR":"0.00017777000000","OBJECT_ID":"2020-074AC","SEMIMAJOR_AXIS":"6925.312","PERIOD":"95.591","MEAN_MOTION":"15.06411973","CLASSIFICATION_TYPE":"U","GP_ID":"193991472","OBJECT_NAME":"STARLINK-1906","CENTER_NAME":"EARTH","MEAN_MOTION_DDOT":"0.0000000000000","MEAN_MOTION_DOT":"0.00002368","EPOCH":"2022-01-16T17:43:12.935424","NORAD_CAT_ID":"46765","REV_AT_EPOCH":"6815"},{"FILE":"3274671","SITE":"AFETR","EPHEMERIS_TYPE":"0","COUNTRY_CODE":"US","OBJECT_TYPE":"PAYLOAD","MEAN_ANOMALY":"293.0073","INCLINATION":"53.0529","TLE_LINE1":"1 46766U 20074AD  22016.46558558  .00002302  00000-0  17331-3 0  9994","ARG_OF_PERICENTER":"67.1108","ELEMENT_SET_NO":"999","PERIAPSIS":"545.918","TIME_SYSTEM":"UTC","CENTER_NAME":"EARTH","OBJECT_NAME":"STARLINK-1916","GP_ID":"193984705","CLASSIFICATION_TYPE":"U","SEMIMAJOR_AXIS":"6925.312","PERIOD":"95.591","MEAN_MOTION":"15.06411951","BSTAR":"0.00017331000000","ECCENTRICITY":"0.00018180","OBJECT_ID":"2020-074AD","REV_AT_EPOCH":"6839","NORAD_CAT_ID":"46766","EPOCH":"2022-01-16T11:10:26.594112","MEAN_MOTION_DOT":"0.00002302","MEAN_MOTION_DDOT":"0.0000000000000","DECAY_DATE":null,"APOAPSIS":"548.436","TLE_LINE2":"2 46766  53.0529 289.7431 0001818  67.1108 293.0073 15.06411951 68393","RCS_SIZE":"LARGE","LAUNCH_DATE":"2020-10-24","REF_FRAME":"TEME","MEAN_ELEMENT_THEORY":"SGP4","RA_OF_ASC_NODE":"289.7431"}];
